start=new Date('2022-01-27T00:00:00.000Z').valueOf();
sats=[{"TLE_LINE1":"1 45686U 20035AF  22026.24808953 -.00000805  00000-0 -35137-4 0  9998","RCS_SIZE":"LARGE","TLE_LINE2":"2 45686  53.0565 325.8304 0001796  68.1410 291.9770 15.06406784 92279","ECCENTRICITY":"0.00017960","ARG_OF_PERICENTER":"68.1410","INCLINATION":"53.0565","SITE":"AFETR","APOAPSIS":"548.437","NORAD_CAT_ID":"45686","MEAN_ANOMALY":"291.9770","EPHEMERIS_TYPE":"0","SEMIMAJOR_AXIS":"6925.328","PERIAPSIS":"545.949","REF_FRAME":"TEME","DECAY_DATE":null,"MEAN_ELEMENT_THEORY":"SGP4","GP_ID":"194677422","CENTER_NAME":"EARTH","RA_OF_ASC_NODE":"325.8304","MEAN_MOTION_DDOT":"0.0000000000000","OBJECT_NAME":"STARLINK-1404","LAUNCH_DATE":"2020-06-04","FILE":"3284266","MEAN_MOTION":"15.06406784","TIME_SYSTEM":"UTC","EPOCH":"2022-01-26T05:57:14.935392","PERIOD":"95.592","REV_AT_EPOCH":"9227","BSTAR":"-0.00003513700000","OBJECT_TYPE":"PAYLOAD","ELEMENT_SET_NO":"999","CLASSIFICATION_TYPE":"U","COUNTRY_CODE":"US","MEAN_MOTION_DOT":"-0.00000805","OBJECT_ID":"2020-035AF"},{"BSTAR":"0.00449860000000","OBJECT_TYPE":"PAYLOAD","PERIOD":"91.774","EPOCH":"2022-01-26T17:36:21.241152","REV_AT_EPOCH":"9224","COUNTRY_CODE":"US","MEAN_MOTION_DOT":"0.00568601","OBJECT_ID":"2020-035AG","ELEMENT_SET_NO":"999","CLASSIFICATION_TYPE":"U","MEAN_ELEMENT_THEORY":"SGP4","GP_ID":"194687912","DECAY_DATE":null,"REF_FRAME":"TEME","LAUNCH_DATE":"2020-06-04","FILE":"3284462","MEAN_MOTION":"15.69078090","TIME_SYSTEM":"UTC","CENTER_NAME":"EARTH","RA_OF_ASC_NODE":"299.3916","OBJECT_NAME":"STARLINK-1406","MEAN_MOTION_DDOT":"0.0000000000000","NORAD_CAT_ID":"45687","PERIAPSIS":"360.878","MEAN_ANOMALY":"260.8330","SEMIMAJOR_AXIS":"6739.673","EPHEMERIS_TYPE":"0","TLE_LINE1":"1 45687U 20035AG  22026.73357918  .00568601  00000-0  44986-2 0  9994","RCS_SIZE":"LARGE","ARG_OF_PERICENTER":"99.2796","SITE":"AFETR","INCLINATION":"53.0152","APOAPSIS":"362.197","TLE_LINE2":"2 45687  53.0152 299.3916 0000979  99.2796 260.8330 15.69078090 92248","ECCENTRICITY":"0.00009790"},{"CLASSIFICATION_TYPE":"U","ELEMENT_SET_NO":"999","COUNTRY_CODE":"US","MEAN_MOTION_DOT":"0.00002173","OBJECT_ID":"2020-035AH","REV_AT_EPOCH":"9226","PERIOD":"95.592","EPOCH":"2022-01-26T05:46:37.841664","OBJECT_TYPE":"PAYLOAD","BSTAR":"0.00016472000000","RA_OF_ASC_NODE":"325.8561","CENTER_NAME":"EARTH","MEAN_MOTION_DDOT":"0.0000000000000","OBJECT_NAME":"STARLINK-1408","LAUNCH_DATE":"2020-06-04","FILE":"3284266","MEAN_MOTION":"15.06399172","TIME_SYSTEM":"UTC","REF_FRAME":"TEME","DECAY_DATE":null,"MEAN_ELEMENT_THEORY":"SGP4","GP_ID":"194678424","SEMIMAJOR_AXIS":"6925.351","EPHEMERIS_TYPE":"0","MEAN_ANOMALY":"305.3934","PERIAPSIS":"546.021","NORAD_CAT_ID":"45688","ECCENTRICITY":"0.00017250","TLE_LINE2":"2 45688  53.0542 325.8561 0001725  54.7216 305.3934 15.06399172 92261","ARG_OF_PERICENTER":"54.7216","APOAPSIS":"548.411","INCLINATION":"53.0542","SITE":"AFETR","TLE_LINE1":"1 45688U 20035AH  22026.24071576  .00002173  00000-0  16472-3 0  9991","RCS_SIZE":"LARGE"},{"PERIAPSIS":"545.889","SEMIMAJOR_AXIS":"6925.312","EPHEMERIS_TYPE":"0","MEAN_ANOMALY":"294.6186","NORAD_CAT_ID":"45689","ARG_OF_PERICENTER":"65.4997","APOAPSIS":"548.466","SITE":"AFETR","INCLINATION":"53.0553","ECCENTRICITY":"0.00018610","TLE_LINE2":"2 45689  53.0553 324.5525 0001861  65.4997 294.6186 15.06411781 92222","TLE_LINE1":"1 45689U 20035AJ  22026.53191572  .00010362  00000-0  71326-3 0  9991","RCS_SIZE":"LARGE","COUNTRY_CODE":"US","MEAN_MOTION_DOT":"0.00010362","OBJECT_ID":"2020-035AJ","CLASSIFICATION_TYPE":"U","ELEMENT_SET_NO":"999","OBJECT_TYPE":"PAYLOAD","BSTAR":"0.00071326000000","REV_AT_EPOCH":"9222","EPOCH":"2022-01-26T12:45:57.518208","PERIOD":"95.591","LAUNCH_DATE":"2020-06-04","TIME_SYSTEM":"UTC","FILE":"3284266","MEAN_MOTION":"15.06411781","RA_OF_ASC_NODE":"324.5525","CENTER_NAME":"EARTH","MEAN_MOTION_DDOT":"0.0000000000000","OBJECT_NAME":"STARLINK-1413","MEAN_ELEMENT_THEORY":"SGP4","GP_ID":"194678674","DECAY_DATE":null,"REF_FRAME":"TEME"},{"TLE_LINE2":"2 45690  53.0013 323.2199 0001697  69.0615 291.0554 15.05589101 91918","ECCENTRICITY":"0.00016970","ARG_OF_PERICENTER":"69.0615","SITE":"AFETR","INCLINATION":"53.0013","APOAPSIS":"550.876","TLE_LINE1":"1 45690U 20035AK  22026.83282267 -.00000066  00000-0  14668-4 0  9996","RCS_SIZE":"LARGE","MEAN_ANOMALY":"291.0554","EPHEMERIS_TYPE":"0","SEMIMAJOR_AXIS":"6927.835","PERIAPSIS":"548.524","NORAD_CAT_ID":"45690","CENTER_NAME":"EARTH","RA_OF_ASC_NODE":"323.2199","MEAN_MOTION_DDOT":"0.0000000000000","OBJECT_NAME":"STARLINK-1414","LAUNCH_DATE":"2020-06-04","FILE":"3284423","MEAN_MOTION":"15.05589101","TIME_SYSTEM":"UTC","REF_FRAME":"TEME","DECAY_DATE":null,"MEAN_ELEMENT_THEORY":"SGP4","GP_ID":"194686879","ELEMENT_SET_NO":"999","CLASSIFICATION_TYPE":"U","MEAN_MOTION_DOT":"-0.00000066","COUNTRY_CODE":"US","OBJECT_ID":"2020-035AK","PERIOD":"95.644","EPOCH":"2022-01-26T19:59:15.878688","REV_AT_EPOCH":"9191","BSTAR":"0.00001466800000","OBJECT_TYPE":"PAYLOAD"},{"DECAY_DATE":null,"REF_FRAME":"TEME","MEAN_ELEMENT_THEORY":"SGP4","GP_ID":"194677673","CENTER_NAME":"EARTH","RA_OF_ASC_NODE":"324.6365","OBJECT_NAME":"STARLINK-1415","MEAN_MOTION_DDOT":"0.0000000000000","LAUNCH_DATE":"2020-06-04","TIME_SYSTEM":"UTC","FILE":"3284266","MEAN_MOTION":"15.06407080","PERIOD":"95.592","EPOCH":"2022-01-26T12:24:42.379488","REV_AT_EPOCH":"9231","OBJECT_TYPE":"PAYLOAD","BSTAR":"-0.00000527740000","CLASSIFICATION_TYPE":"U","ELEMENT_SET_NO":"999","MEAN_MOTION_DOT":"-0.00000360","COUNTRY_CODE":"US","OBJECT_ID":"2020-035AL","TLE_LINE1":"1 45691U 20035AL  22026.51715717 -.00000360  00000-0 -52774-5 0  9992","RCS_SIZE":"LARGE","TLE_LINE2":"2 45691  53.0546 324.6365 0001617  63.1653 296.9501 15.06407080 92316","ECCENTRICITY":"0.00016170","ARG_OF_PERICENTER":"63.1653","INCLINATION":"53.0546","SITE":"AFETR","APOAPSIS":"548.312","NORAD_CAT_ID":"45691","MEAN_ANOMALY":"296.9501","SEMIMAJOR_AXIS":"6925.327","EPHEMERIS_TYPE":"0","PERIAPSIS":"546.072"},{"MEAN_ELEMENT_THEORY":"SGP4","GP_ID":"194678924","DECAY_DATE":null,"REF_FRAME":"TEME","LAUNCH_DATE":"2020-06-04","TIME_SYSTEM":"UTC","FILE":"3284266","MEAN_MOTION":"15.06404842","RA_OF_ASC_NODE":"325.5615","CENTER_NAME":"EARTH","OBJECT_NAME":"STARLINK-1416","MEAN_MOTION_DDOT":"0.0000000000000","BSTAR":"0.00006112100000","OBJECT_TYPE":"PAYLOAD","REV_AT_EPOCH":"9227","EPOCH":"2022-01-26T07:27:28.452672","PERIOD":"95.592","MEAN_MOTION_DOT":"0.00000629","COUNTRY_CODE":"US","OBJECT_ID":"2020-035AM","ELEMENT_SET_NO":"999","CLASSIFICATION_TYPE":"U","TLE_LINE1":"1 45692U 20035AM  22026.31074598  .00000629  00000-0  61121-4 0  9997","RCS_SIZE":"LARGE","ARG_OF_PERICENTER":"64.8526","APOAPSIS":"548.280","INCLINATION":"53.0551","SITE":"AFETR","ECCENTRICITY":"0.00015610","TLE_LINE2":"2 45692  53.0551 325.5615 0001561  64.8526 295.2625 15.06404842 92273","NORAD_CAT_ID":"45692","PERIAPSIS":"546.118","SEMIMAJOR_AXIS":"6925.334","EPHEMERIS_TYPE":"0","MEAN_ANOMALY":"295.2625"},{"RCS_SIZE":"LARGE","TLE_LINE1":"1 45693U 20035AN  22026.52821730  .00000143  00000-0  28485-4 0  9996","TLE_LINE2":"2 45693  53.0546 324.5788 0001613  61.8669 298.2482 15.06399292 92301","ECCENTRICITY":"0.00016130","SITE":"AFETR","INCLINATION":"53.0546","APOAPSIS":"548.333","ARG_OF_PERICENTER":"61.8669","NORAD_CAT_ID":"45693","MEAN_ANOMALY":"298.2482","EPHEMERIS_TYPE":"0","SEMIMAJOR_AXIS":"6925.351","PERIAPSIS":"546.099","DECAY_DATE":null,"REF_FRAME":"TEME","GP_ID":"194679174","MEAN_ELEMENT_THEORY":"SGP4","MEAN_MOTION_DDOT":"0.0000000000000","OBJECT_NAME":"STARLINK-1417","CENTER_NAME":"EARTH","RA_OF_ASC_NODE":"324.5788","MEAN_MOTION":"15.06399292","FILE":"3284266","TIME_SYSTEM":"UTC","LAUNCH_DATE":"2020-06-04","EPOCH":"2022-01-26T12:40:37.974720","PERIOD":"95.592","REV_AT_EPOCH":"9230","BSTAR":"0.00002848500000","OBJECT_TYPE":"PAYLOAD","ELEMENT_SET_NO":"999","CLASSIFICATION_TYPE":"U","OBJECT_ID":"2020-035AN","MEAN_MOTION_DOT":"0.00000143","COUNTRY_CODE":"US"},{"PERIAPSIS":"546.026","SEMIMAJOR_AXIS":"6925.328","EPHEMERIS_TYPE":"0","MEAN_ANOMALY":"305.5511","NORAD_CAT_ID":"45694","APOAPSIS":"548.359","INCLINATION":"53.0552","SITE":"AFETR","ARG_OF_PERICENTER":"54.5635","ECCENTRICITY":"0.00016850","TLE_LINE2":"2 45694  53.0552 324.5349 0001685  54.5635 305.5511 15.06406855 92302","RCS_SIZE":"LARGE","TLE_LINE1":"1 45694U 20035AP  22026.53558010  .00001826  00000-0  14146-3 0  9993","OBJECT_ID":"2020-035AP","COUNTRY_CODE":"US","MEAN_MOTION_DOT":"0.00001826","CLASSIFICATION_TYPE":"U","ELEMENT_SET_NO":"999","BSTAR":"0.00014146000000","OBJECT_TYPE":"PAYLOAD","REV_AT_EPOCH":"9230","PERIOD":"95.592","EPOCH":"2022-01-26T12:51:14.120640","MEAN_MOTION":"15.06406855","FILE":"3284266","TIME_SYSTEM":"UTC","LAUNCH_DATE":"2020-06-04","OBJECT_NAME":"STARLINK-1419","MEAN_MOTION_DDOT":"0.0000000000000","RA_OF_ASC_NODE":"324.5349","CENTER_NAME":"EARTH","GP_ID":"194677423","MEAN_ELEMENT_THEORY":"SGP4","DECAY_DATE":null,"REF_FRAME":"TEME"},{"OBJECT_NAME":"STARLINK-1420","MEAN_MOTION_DDOT":"0.0000000000000","RA_OF_ASC_NODE":"304.8564","CENTER_NAME":"EARTH","MEAN_MOTION":"15.06404277","FILE":"3284266","TIME_SYSTEM":"UTC","LAUNCH_DATE":"2020-06-04","DECAY_DATE":null,"REF_FRAME":"TEME","GP_ID":"194678173","MEAN_ELEMENT_THEORY":"SGP4","ELEMENT_SET_NO":"999","CLASSIFICATION_TYPE":"U","OBJECT_ID":"2020-035AQ","COUNTRY_CODE":"US","MEAN_MOTION_DOT":"-0.00000611","REV_AT_EPOCH":"9258","PERIOD":"95.592","EPOCH":"2022-01-26T11:07:45.374304","OBJECT_TYPE":"PAYLOAD","BSTAR":"-0.00002213300000","ECCENTRICITY":"0.00017050","TLE_LINE2":"2 45695  53.0549 304.8564 0001705  67.6875 292.4294 15.06404277 92581","APOAPSIS":"548.381","SITE":"AFETR","INCLINATION":"53.0549","ARG_OF_PERICENTER":"67.6875","RCS_SIZE":"LARGE","TLE_LINE1":"1 45695U 20035AQ  22026.46371961 -.00000611  00000-0 -22133-4 0  9993","EPHEMERIS_TYPE":"0","SEMIMAJOR_AXIS":"6925.335","MEAN_ANOMALY":"292.4294","PERIAPSIS":"546.020","NORAD_CAT_ID":"45695"}];
